ONEWEB-0202             
1 48224U 21031Q   24048.89259309  .00000197  00000+0  49739-3 0  9991
2 48224  87.8926  98.9600 0001536  70.7663 289.3633 13.14504844136657
ONEWEB-0204             
1 48225U 21031R   24049.38338936 -.00000119  00000+0 -35438-3 0  9998
2 48225  87.8927  98.8741 0002148 109.9307 250.2054 13.14503261136627
ONEWEB-0205             
1 48226U 21031S   24049.43493703  .00000241  00000+0  61491-3 0  9991
2 48226  87.8926  98.8349 0001652 100.8434 259.2881 13.14502888136644
ONEWEB-0206             
1 48227U 21031T   24048.87514548 -.00000026  00000+0 -10335-3 0  9994
2 48227  87.8923  98.9388 0001711 104.1811 255.9509 13.14502348136515
ONEWEB-0182             
1 48228U 21031U   24049.40320341 -.00000144  00000+0 -42274-3 0  9999
2 48228  87.8926  98.8552 0001975 103.4398 256.6951 13.14504537136808
ONEWEB-0186             
1 48229U 21031V   24048.88149370  .00000139  00000+0  34107-3 0  9990
2 48229  87.8927  98.9244 0001819  95.5824 264.5513 13.14503179136679
ONEWEB-0181             
1 48230U 21031W   24049.39210034 -.00000218  00000+0 -62380-3 0  9999
2 48230  87.8929  98.8916 0001799  93.3117 266.8218 13.14501005136602
ONEWEB-0188             
1 48231U 21031X   24049.50628566 -.00006473  00000+0 -17499-1 0  9994
2 48231  87.8925  98.8657 0001682 103.1918 256.9399 13.14535165136515
